{
  "type": "FeatureCollection",
  "features": [
    {
      "type": "Feature",
      "properties": {
        "norad_id": 40376,
        "name": "SMAP",
        "group": "resource",
        "lat": -81.80472910907379,
        "lon": 88.64776474763458,
        "alt_km": 690.561314757655,
        "timestamp": "2025-12-27T03:58:43.835275+00:00",
        "meta_object_name": "SMAP",
        "meta_object_id": "2015-003A",
        "meta_epoch": "2025-12-26T18:32:20.128416",
        "meta_mean_motion": 14.63362285,
        "meta_eccentricity": 0.0001239,
        "meta_inclination": 98.1291,
        "meta_ra_of_asc_node": 5.2941,
        "meta_arg_of_pericenter": 92.487,
        "meta_mean_anomaly": 267.6474,
        "meta_ephemeris_type": 0,
        "meta_classification_type": "U",
        "meta_norad_cat_id": 40376,
        "meta_element_set_no": 999,
        "meta_rev_at_epoch": 58240,
        "meta_bstar": 0.00012541,
        "meta_mean_motion_dot": 6.01e-06,
        "meta_mean_motion_ddot": 0,
        "tle_line1": "1 40376U 15003A   25360.77245519  .00000601  00000+0  12541-3 0  9997",
        "tle_line2": "2 40376  98.1291   5.2941 0001239  92.4870 267.6474 14.63362285582403"
      },
      "geometry": {
        "type": "Point",
        "coordinates": [
          88.64776474763458,
          -81.80472910907379
        ]
      }
    },
    {
      "type": "Feature",
      "properties": {
        "norad_id": 40536,
        "name": "KOMPSAT-3A",
        "group": "resource",
        "lat": -14.99572339835972,
        "lon": 154.2439461256093,
        "alt_km": 438.33905966415296,
        "timestamp": "2025-12-27T03:58:43.835284+00:00",
        "meta_object_name": "KOMPSAT-3A",
        "meta_object_id": "2015-014A",
        "meta_epoch": "2025-12-26T20:55:04.516320",
        "meta_mean_motion": 15.44473983,
        "meta_eccentricity": 0.000566,
        "meta_inclination": 97.6807,
        "meta_ra_of_asc_node": 336.0049,
        "meta_arg_of_pericenter": 96.827,
        "meta_mean_anomaly": 263.3622,
        "meta_ephemeris_type": 0,
        "meta_classification_type": "U",
        "meta_norad_cat_id": 40536,
        "meta_element_set_no": 999,
        "meta_rev_at_epoch": 59513,
        "meta_bstar": 0.0004678,
        "meta_mean_motion_dot": 0.00021615,
        "meta_mean_motion_ddot": 0,
        "tle_line1": "1 40536U 15014A   25360.87158005  .00021615  00000+0  46780-3 0  9991",
        "tle_line2": "2 40536  97.6807 336.0049 0005660  96.8270 263.3622 15.44473983595136"
      },
      "geometry": {
        "type": "Point",
        "coordinates": [
          154.2439461256093,
          -14.99572339835972
        ]
      }
    },
    {
      "type": "Feature",
      "properties": {
        "norad_id": 40697,
        "name": "SENTINEL-2A",
        "group": "resource",
        "lat": -70.26296857953342,
        "lon": -131.36509716460037,
        "alt_km": 797.007406448718,
        "timestamp": "2025-12-27T03:58:43.835294+00:00",
        "meta_object_name": "SENTINEL-2A",
        "meta_object_id": "2015-028A",
        "meta_epoch": "2025-12-26T20:05:26.762784",
        "meta_mean_motion": 14.30810799,
        "meta_eccentricity": 0.0001044,
        "meta_inclination": 98.5724,
        "meta_ra_of_asc_node": 73.1722,
        "meta_arg_of_pericenter": 87.4763,
        "meta_mean_anomaly": 272.6539,
        "meta_ephemeris_type": 0,
        "meta_classification_type": "U",
        "meta_norad_cat_id": 40697,
        "meta_element_set_no": 999,
        "meta_rev_at_epoch": 54908,
        "meta_bstar": 4.8673e-05,
        "meta_mean_motion_dot": 8.4e-07,
        "meta_mean_motion_ddot": 0,
        "tle_line1": "1 40697U 15028A   25360.83711531  .00000084  00000+0  48673-4 0  9990",
        "tle_line2": "2 40697  98.5724  73.1722 0001044  87.4763 272.6539 14.30810799549081"
      },
      "geometry": {
        "type": "Point",
        "coordinates": [
          -131.36509716460037,
          -70.26296857953342
        ]
      }
    },
    {
      "type": "Feature",
      "properties": {
        "norad_id": 40701,
        "name": "GAOFEN-8",
        "group": "resource",
        "lat": 41.721623019170075,
        "lon": 6.934775965543636,
        "alt_km": 440.37014153584096,
        "timestamp": "2025-12-27T03:58:43.835303+00:00",
        "meta_object_name": "GAOFEN-8",
        "meta_object_id": "2015-030A",
        "meta_epoch": "2025-12-26T21:08:30.983424",
        "meta_mean_motion": 15.39079224,
        "meta_eccentricity": 0.001153,
        "meta_inclination": 97.6902,
        "meta_ra_of_asc_node": 179.7158,
        "meta_arg_of_pericenter": 89.2631,
        "meta_mean_anomaly": 270.9935,
        "meta_ephemeris_type": 0,
        "meta_classification_type": "U",
        "meta_norad_cat_id": 40701,
        "meta_element_set_no": 999,
        "meta_rev_at_epoch": 58488,
        "meta_bstar": 0.00067377,
        "meta_mean_motion_dot": 0.00026111,
        "meta_mean_motion_ddot": 0,
        "tle_line1": "1 40701U 15030A   25360.88091416  .00026111  00000+0  67377-3 0  9997",
        "tle_line2": "2 40701  97.6902 179.7158 0011530  89.2631 270.9935 15.39079224584884"
      },
      "geometry": {
        "type": "Point",
        "coordinates": [
          6.934775965543636,
          41.721623019170075
        ]
      }
    },
    {
      "type": "Feature",
      "properties": {
        "norad_id": 40718,
        "name": "CARBONITE 1 (CBNT-1)",
        "group": "resource",
        "lat": 43.48582029348476,
        "lon": 174.26015182692294,
        "alt_km": 617.0014590060428,
        "timestamp": "2025-12-27T03:58:43.835313+00:00",
        "meta_object_name": "CARBONITE 1 (CBNT-1)",
        "meta_object_id": "2015-032D",
        "meta_epoch": "2025-12-26T19:40:59.721024",
        "meta_mean_motion": 14.82813075,
        "meta_eccentricity": 0.0015416,
        "meta_inclination": 97.6408,
        "meta_ra_of_asc_node": 181.2451,
        "meta_arg_of_pericenter": 136.1017,
        "meta_mean_anomaly": 224.1425,
        "meta_ephemeris_type": 0,
        "meta_classification_type": "U",
        "meta_norad_cat_id": 40718,
        "meta_element_set_no": 999,
        "meta_rev_at_epoch": 56379,
        "meta_bstar": 0.00055281,
        "meta_mean_motion_dot": 4.432e-05,
        "meta_mean_motion_ddot": 0,
        "tle_line1": "1 40718U 15032D   25360.82013566  .00004432  00000+0  55281-3 0  9994",
        "tle_line2": "2 40718  97.6408 181.2451 0015416 136.1017 224.1425 14.82813075563793"
      },
      "geometry": {
        "type": "Point",
        "coordinates": [
          174.26015182692294,
          43.48582029348476
        ]
      }
    },
    {
      "type": "Feature",
      "properties": {
        "norad_id": 40878,
        "name": "YAOGAN-27",
        "group": "resource",
        "lat": 76.94870226674684,
        "lon": -139.5977218290276,
        "alt_km": 1197.5983809055106,
        "timestamp": "2025-12-27T03:58:43.835322+00:00",
        "meta_object_name": "YAOGAN-27",
        "meta_object_id": "2015-040A",
        "meta_epoch": "2025-12-26T22:00:25.673184",
        "meta_mean_motion": 13.16059956,
        "meta_eccentricity": 0.000759,
        "meta_inclination": 100.1025,
        "meta_ra_of_asc_node": 349.896,
        "meta_arg_of_pericenter": 251.4695,
        "meta_mean_anomaly": 108.5595,
        "meta_ephemeris_type": 0,
        "meta_classification_type": "U",
        "meta_norad_cat_id": 40878,
        "meta_element_set_no": 999,
        "meta_rev_at_epoch": 49500,
        "meta_bstar": -0.001152,
        "meta_mean_motion_dot": -4.8e-06,
        "meta_mean_motion_ddot": 0,
        "tle_line1": "1 40878U 15040A   25360.91696381 -.00000480  00000+0 -11520-2 0  9990",
        "tle_line2": "2 40878 100.1025 349.8960 0007590 251.4695 108.5595 13.16059956495006"
      },
      "geometry": {
        "type": "Point",
        "coordinates": [
          -139.5977218290276,
          76.94870226674684
        ]
      }
    },
    {
      "type": "Feature",
      "properties": {
        "norad_id": 40894,
        "name": "GAOFEN-9 01",
        "group": "resource",
        "lat": -52.06430007092979,
        "lon": 49.429723736198596,
        "alt_km": 613.9564533491703,
        "timestamp": "2025-12-27T03:58:43.835331+00:00",
        "meta_object_name": "GAOFEN-9 01",
        "meta_object_id": "2015-047A",
        "meta_epoch": "2025-12-26T20:06:55.726272",
        "meta_mean_motion": 14.82456562,
        "meta_eccentricity": 0.0027235,
        "meta_inclination": 97.6525,
        "meta_ra_of_asc_node": 39.1837,
        "meta_arg_of_pericenter": 348.5411,
        "meta_mean_anomaly": 11.518,
        "meta_ephemeris_type": 0,
        "meta_classification_type": "U",
        "meta_norad_cat_id": 40894,
        "meta_element_set_no": 999,
        "meta_rev_at_epoch": 55465,
        "meta_bstar": 0.0001599,
        "meta_mean_motion_dot": 1.239e-05,
        "meta_mean_motion_ddot": 0,
        "tle_line1": "1 40894U 15047A   25360.83814498  .00001239  00000+0  15990-3 0  9994",
        "tle_line2": "2 40894  97.6525  39.1837 0027235 348.5411  11.5180 14.82456562554651"
      },
      "geometry": {
        "type": "Point",
        "coordinates": [
          49.429723736198596,
          -52.06430007092979
        ]
      }
    }
  ]
}